     2.11           N: GPS NAV DATA                         RINEX VERSION / TYPE
teqc  2019Feb25                         20221121 12:28:07UTCPGM / RUN BY / DATE
OSX ker:10.11.6|Core i5|gcc 4.3 -m64|OSX ker:10.10+|=+      COMMENT
    1.0245D-08  7.4506D-09 -5.9605D-08 -5.9605D-08          ION ALPHA
    8.8064D+04  0.0000D+00 -1.9661D+05 -6.5536D+04          ION BETA
    0.000000000000D+00 0.000000000000D+00   589824     1552 DELTA-UTC: A0,A1,T,W
                                                            END OF HEADER
29 09 10  8  2  0  0.0 6.408337503672D-05 3.183231456205D-12 0.000000000000D+00
    7.000000000000D+01-2.350000000000D+01 4.786270795962D-09-2.885084468834D+00
   -1.344829797745D-06 3.020905307494D-03 6.277114152908D-06 5.153589107513D+03
    3.528000000000D+05 3.725290298462D-08 2.485185978131D+00 6.705522537231D-08
    9.601830526668D-01 2.545000000000D+02-1.272436542752D+00-8.059978587603D-09
   -1.492919328940D-10 1.000000000000D+00 1.552000000000D+03 0.000000000000D+00
    2.000000000000D+00 0.000000000000D+00-8.847564458847D-09 7.000000000000D+01
    3.456180000000D+05 4.000000000000D+00
 5 09 10  8  2  0  0.0-7.075956091285D-05 9.208633855451D-12 0.000000000000D+00
    7.100000000000D+01 1.269062500000D+02 4.645907806423D-09 1.075257397152D+00
    6.726011633873D-06 1.499464735389D-03 5.599111318588D-06 5.153576860428D+03
    3.528000000000D+05 6.332993507385D-08-1.734856522663D+00-5.029141902924D-08
    9.611322451188D-01 2.685625000000D+02 2.259613112585D-01-8.290702483894D-09
    1.382200431339D-10 1.000000000000D+00 1.552000000000D+03 0.000000000000D+00
    2.000000000000D+00 0.000000000000D+00-9.313225746155D-09 7.100000000000D+01
    3.457920000000D+05 4.000000000000D+00
30 09 10  8  1 59 44.0 1.830835826695D-04 3.069544618484D-12 0.000000000000D+00
    2.000000000000D+00-3.468750000000D+00 4.572690470912D-09 1.826416135529D+00
   -3.669410943985D-07 1.194286579266D-02 7.838010787964D-06 5.153663284302D+03
    3.527840000000D+05 1.229345798492D-07 1.366855172993D+00-3.147870302200D-07
    9.530827900095D-01 2.228750000000D+02 1.459982327450D+00-7.973903573662D-09
    5.414511250413D-10 1.000000000000D+00 1.552000000000D+03 0.000000000000D+00
    2.000000000000D+00 0.000000000000D+00-7.916241884232D-09 2.000000000000D+00
    3.465780000000D+05 4.000000000000D+00
25 09 10  8  2  0  0.0 6.231991574168D-04 1.386979420204D-11 0.000000000000D+00
    1.040000000000D+02-1.157187500000D+02 3.859089317989D-09 2.566182873349D+00
   -5.867332220078D-06 1.124096475542D-02 9.573996067047D-06 5.153649271011D+03
    3.528000000000D+05 1.061707735062D-07 2.699202528163D-01 6.146728992462D-08
    9.714648457531D-01 1.983125000000D+02-1.213908628258D+00-7.565672283476D-09
   -1.660783464012D-10 1.000000000000D+00 1.552000000000D+03 0.000000000000D+00
    2.800000000000D+00 0.000000000000D+00-7.450580596924D-09 1.040000000000D+02
    3.466620000000D+05 4.000000000000D+00
16 09 10  8  1 59 44.0 4.821456968784D-06-3.979039320257D-12 0.000000000000D+00
    1.500000000000D+01 7.031250000000D+00 4.318037006431D-09 1.923330198263D+00
    4.637986421585D-07 5.299133830704D-03 8.001923561096D-06 5.153629936218D+03
    3.527840000000D+05-6.519258022308D-08 1.433922305625D+00 4.097819328308D-08
    9.692797625527D-01 2.294687500000D+02-2.688019148501D-01-7.823183009831D-09
    4.610906348471D-10 1.000000000000D+00 1.552000000000D+03 0.000000000000D+00
    2.000000000000D+00 0.000000000000D+00-9.778887033463D-09 1.500000000000D+01
    3.487020000000D+05 4.000000000000D+00
 7 09 10  8  1 59 44.0 1.003965735435D-05-6.821210263297D-13 0.000000000000D+00
    9.000000000000D+00-1.066562500000D+02 3.960522114500D-09-1.996911244283D+00
   -5.537644028664D-06 3.191873314790D-03 1.022219657898D-05 5.153655031204D+03
    3.527840000000D+05-2.980232238770D-08 3.640989323077D-01 1.303851604462D-08
    9.693074877761D-01 1.866562500000D+02 2.975600604178D+00-7.755680198068D-09
    3.535861568541D-11 1.000000000000D+00 1.552000000000D+03 0.000000000000D+00
    2.000000000000D+00 0.000000000000D+00-1.071020960808D-08 9.000000000000D+00
    3.490320000000D+05 4.000000000000D+00
 8 09 10  8  2  0  0.0-2.241954207420D-04-1.477928890381D-12 0.000000000000D+00
    6.200000000000D+01-1.080000000000D+02 3.508003265274D-09-2.647028232197D+00
   -5.552545189857D-06 1.099577522837D-02 1.078844070435D-05 5.153625530243D+03
    3.528000000000D+05-1.676380634308D-07 4.271818397354D-01 9.313225746155D-09
    9.905371852440D-01 1.858437500000D+02 3.035129340428D+00-7.426380767139D-09
    4.000166622996D-11 1.000000000000D+00 1.552000000000D+03 0.000000000000D+00
    2.000000000000D+00 0.000000000000D+00-3.725290298462D-09 6.200000000000D+01
    3.523320000000D+05 4.000000000000D+00
 2 09 10  8  4  0  0.0 1.789741218090D-04 3.524291969370D-12 0.000000000000D+00
    8.500000000000D+01 4.265625000000D+01 4.858773816004D-09 7.606091189485D-01
    2.250075340271D-06 9.120974340476D-03 1.090951263905D-05 5.153721818924D+03
    3.600000000000D+05 2.086162567139D-07-2.792939233770D+00 1.490116119385D-08
    9.411683243528D-01 1.595937500000D+02 2.901065897954D+00-8.036049019412D-09
   -3.189418566371D-10 1.000000000000D+00 1.552000000000D+03 0.000000000000D+00
    2.000000000000D+00 0.000000000000D+00-1.722946763039D-08 8.500000000000D+01
    3.528180000000D+05 4.000000000000D+00
13 09 10  8  4  0  0.0 3.054519183934D-04 3.410605131648D-13 0.000000000000D+00
    4.900000000000D+01-5.681250000000D+01 3.985880313628D-09 1.374157600688D+00
   -3.142282366753D-06 3.959949244745D-03 2.672895789146D-06 5.153641790390D+03
    3.600000000000D+05-7.264316082001D-08-6.220058759443D-01-1.452863216400D-07
    9.943336185807D-01 3.441250000000D+02 1.662575861598D+00-8.027834391525D-09
   -2.660825119761D-10 1.000000000000D+00 1.552000000000D+03 0.000000000000D+00
    2.000000000000D+00 0.000000000000D+00-1.117587089539D-08 4.900000000000D+01
    3.528180000000D+05 4.000000000000D+00
10 09 10  8  4  0  0.0-2.533383667469D-05-9.094947017729D-13 0.000000000000D+00
    5.700000000000D+01 1.370312500000D+02 4.841273087028D-09 1.843256581367D+00
    7.091090083122D-06 8.587343036197D-03 5.487352609634D-06 5.153385028839D+03
    3.600000000000D+05-2.235174179077D-07-1.707850831094D+00 6.332993507385D-08
    9.561998441902D-01 2.723125000000D+02 6.168437939514D-01-8.355705191517D-09
    2.317953694933D-10 1.000000000000D+00 1.552000000000D+03 0.000000000000D+00
    2.000000000000D+00 0.000000000000D+00-2.793967723846D-09 5.700000000000D+01
    3.528180000000D+05 4.000000000000D+00
 5 09 10  8  4  0  0.0-7.069297134876D-05 9.208633855451D-12 0.000000000000D+00
    7.200000000000D+01 1.363750000000D+02 4.698409993349D-09 2.126201585905D+00
    7.115304470062D-06 1.499927835539D-03 5.561858415604D-06 5.153574863434D+03
    3.600000000000D+05-4.097819328308D-08-1.734916752464D+00 5.587935447693D-08
    9.611337826457D-01 2.722187500000D+02 2.252587711834D-01-8.251772290866D-09
    2.589393572922D-10 1.000000000000D+00 1.552000000000D+03 0.000000000000D+00
    2.000000000000D+00 0.000000000000D+00-9.313225746155D-09 7.200000000000D+01
    3.528180000000D+05 4.000000000000D+00
29 09 10  8  4  0  0.0 6.410619243979D-05 3.183231456205D-12 0.000000000000D+00
    7.200000000000D+01-2.121875000000D+01 4.734840082237D-09-1.834922609172D+00
   -1.002103090286D-06 3.021175740287D-03 6.461516022682D-06 5.153588451385D+03
    3.600000000000D+05-3.725290298462D-09 2.485127947097D+00 6.705522537231D-08
    9.601819876624D-01 2.535625000000D+02-1.272363822558D+00-8.067121742287D-09
   -1.417916204758D-10 1.000000000000D+00 1.552000000000D+03 0.000000000000D+00
    2.000000000000D+00 0.000000000000D+00-8.847564458847D-09 7.200000000000D+01
    3.528180000000D+05 4.000000000000D+00
25 09 10  8  4  0  0.0 6.232988089323D-04 1.386979420204D-11 0.000000000000D+00
    1.050000000000D+02-9.996875000000D+01 3.948735909272D-09-2.666853171356D+00
   -5.172565579414D-06 1.124303368852D-02 9.283423423767D-06 5.153645488739D+03
    3.600000000000D+05 1.005828380585D-07 2.698657006011D-01 9.872019290924D-08
    9.714637573420D-01 2.054375000000D+02-1.213866060268D+00-7.565672283476D-09
   -1.464346710204D-10 1.000000000000D+00 1.552000000000D+03 0.000000000000D+00
    4.000000000000D+00 0.000000000000D+00-7.450580596924D-09 1.050000000000D+02
    3.528180000000D+05 4.000000000000D+00
 7 09 10  8  4  0  0.0 1.003453508019D-05-6.821210263297D-13 0.000000000000D+00
    1.000000000000D+01-9.900000000000D+01 4.018738825174D-09-9.447606308782D-01
   -5.204230546951D-06 3.191152354702D-03 9.797513484955D-06 5.153652656555D+03
    3.600000000000D+05-1.862645149231D-08 3.640434496766D-01-1.024454832077D-07
    9.693074643695D-01 1.966562500000D+02 2.975971866454D+00-7.758180302207D-09
   -5.785955293977D-11 1.000000000000D+00 1.552000000000D+03 0.000000000000D+00
    2.000000000000D+00 0.000000000000D+00-1.071020960808D-08 1.000000000000D+01
    3.528180000000D+05 4.000000000000D+00
16 09 10  8  4  0  0.0 4.792585968971D-06-3.979039320257D-12 0.000000000000D+00
    1.600000000000D+01-2.187500000000D-01 4.324465845646D-09 2.975773614721D+00
   -1.676380634308D-08 5.298287374899D-03 8.098781108856D-06 5.153631776810D+03
    3.600000000000D+05-3.352761268616D-08 1.433865905745D+00 1.117587089539D-08
    9.692829546400D-01 2.291875000000D+02-2.687056928764D-01-7.828540375844D-09
    4.400183285296D-10 1.000000000000D+00 1.552000000000D+03 0.000000000000D+00
    2.000000000000D+00 0.000000000000D+00-9.778887033463D-09 1.600000000000D+01
    3.528180000000D+05 4.000000000000D+00
